<?xml version="1.0" encoding="UTF-8"?><TrainingCenterDatabase xmlns="http://www.garmin.com/xmlschemas/TrainingCenterDatabase/v2"><Activities><Activity Sport="Other"><Id>2025-11-20T14:04:07.539Z</Id><Lap StartTime="2025-11-20T14:04:07.539Z"><TotalTimeSeconds>23.0</TotalTimeSeconds><DistanceMeters>0.0</DistanceMeters><Calories>1</Calories><Intensity>Active</Intensity><TriggerMethod>Manual</TriggerMethod><Track><Trackpoint><Time>2025-11-20T14:04:08.539Z</Time><SensorState>Present</SensorState></Trackpoint><Trackpoint><Time>2025-11-20T14:04:09.539Z</Time><SensorState>Present</SensorState></Trackpoint><Trackpoint><Time>2025-11-20T14:04:10.539Z</Time><SensorState>Present</SensorState></Trackpoint><Trackpoint><Time>2025-11-20T14:04:11.539Z</Time><SensorState>Present</SensorState></Trackpoint><Trackpoint><Time>2025-11-20T14:04:12.539Z</Time><SensorState>Present</SensorState></Trackpoint><Trackpoint><Time>2025-11-20T14:04:13.539Z</Time><SensorState>Present</SensorState></Trackpoint><Trackpoint><Time>2025-11-20T14:04:14.539Z</Time><SensorState>Present</SensorState></Trackpoint><Trackpoint><Time>2025-11-20T14:04:15.539Z</Time><SensorState>Present</SensorState></Trackpoint><Trackpoint><Time>2025-11-20T14:04:16.539Z</Time><SensorState>Present</SensorState></Trackpoint><Trackpoint><Time>2025-11-20T14:04:17.539Z</Time><SensorState>Present</SensorState></Trackpoint><Trackpoint><Time>2025-11-20T14:04:18.539Z</Time><SensorState>Present</SensorState></Trackpoint><Trackpoint><Time>2025-11-20T14:04:19.539Z</Time><SensorState>Present</SensorState></Trackpoint><Trackpoint><Time>2025-11-20T14:04:20.539Z</Time><SensorState>Present</SensorState></Trackpoint><Trackpoint><Time>2025-11-20T14:04:21.539Z</Time><SensorState>Present</SensorState></Trackpoint><Trackpoint><Time>2025-11-20T14:04:22.539Z</Time><SensorState>Present</SensorState></Trackpoint><Trackpoint><Time>2025-11-20T14:04:23.539Z</Time><SensorState>Present</SensorState></Trackpoint><Trackpoint><Time>2025-11-20T14:04:24.539Z</Time><SensorState>Present</SensorState></Trackpoint><Trackpoint><Time>2025-11-20T14:04:25.539Z</Time><SensorState>Present</SensorState></Trackpoint><Trackpoint><Time>2025-11-20T14:04:26.539Z</Time><SensorState>Present</SensorState></Trackpoint><Trackpoint><Time>2025-11-20T14:04:27.539Z</Time><SensorState>Present</SensorState></Trackpoint><Trackpoint><Time>2025-11-20T14:04:28.539Z</Time><SensorState>Present</SensorState></Trackpoint><Trackpoint><Time>2025-11-20T14:04:29.539Z</Time><SensorState>Present</SensorState></Trackpoint></Track></Lap><Training VirtualPartner="false"><Plan Type="Workout" IntervalWorkout="false"><Extensions></Extensions></Plan></Training><Creator xmlns:xsi="http://www.w3.org/2001/XMLSchema-instance" xsi:type="Device_t"><Name>Polar Vantage M2</Name><UnitId>0</UnitId><ProductID>236</ProductID><Version><VersionMajor>2</VersionMajor><VersionMinor>1</VersionMinor><BuildMajor>0</BuildMajor><BuildMinor>0</BuildMinor></Version></Creator></Activity></Activities><Author xmlns:xsi="http://www.w3.org/2001/XMLSchema-instance" xsi:type="Application_t"><Name>Polar Flow Mobile Viewer Android</Name><Build><Version><VersionMajor>0</VersionMajor><VersionMinor>0</VersionMinor></Version></Build><LangID>EN</LangID><PartNumber>XXX-XXXXX-XX</PartNumber></Author></TrainingCenterDatabase>
